COSMOS 2361 [-]         
1 25590U 98076A   23150.90982500  .00000065  00000+0  53656-4 0  9994
2 25590  82.9325 309.3130 0030649 324.7187 201.4834 13.73061961223911
COSMOS 2378 [-]         
1 26818U 01023A   23150.92945294  .00000044  00000+0  31412-4 0  9998
2 26818  82.9263 326.7026 0031599 267.4233 207.1780 13.74001975101955
COSMOS 2389 [-]         
1 27436U 02026A   23151.41352240  .00000048  00000+0  33815-4 0  9990
2 27436  82.9504 272.5053 0047624 124.0697 297.3964 13.75013168 54248
COSMOS 2398 [-]         
1 27818U 03023A   23151.38110385  .00000052  00000+0  40637-4 0  9995
2 27818  82.9497 235.2521 0031908 163.2912 268.0316 13.72246692  1090
COSMOS 2407 [+]         
1 28380U 04028A   23151.51275168  .00000078  00000+0  63935-4 0  9996
2 28380  82.9601 178.7465 0040558 123.1228 346.8594 13.76154692947023
COSMOS 2414 [+]         
1 28521U 05002A   23150.79074385  .00000080  00000+0  54390-4 0  9991
2 28521  82.9485 165.6371 0038722 263.6379  96.0374 13.87706014929717
COSMOS 2429 [-]         
1 32052U 07038A   23150.92042082  .00000061  00000+0  47276-4 0  9994
2 32052  82.9789 306.2911 0039840 103.7843 256.7752 13.74999682788655
COSMOS 2454 [-]         
1 35635U 09039A   23151.13884838  .00000089  00000+0  59911-4 0  9993
2 35635  82.9544 151.0776 0018686 199.5929 234.3116 13.89734789702981
COSMOS 2463 [+]         
1 36519U 10017A   23151.07351653  .00000070  00000+0  61138-4 0  9994
2 36519  82.9604 347.4783 0035725 340.7013 136.2311 13.71509295655433
